SL-4 R/B                
1 39679U 14021B   25360.92142871  .00013697  00000+0  32349-3 0  9991
2 39679  51.6091 331.6564 0100644 197.4438 162.3079 15.37002304645072
ALOS-2                  
1 39766U 14029A   25360.87831637  .00001219  00000+0  17003-3 0  9992
2 39766  97.9215  95.5225 0001377  99.1810 260.9558 14.79473782626102
YAOGAN-29               
1 41038U 15069A   25360.98977120  .00000288  00000+0  42178-4 0  9999
2 41038  98.0209  24.2061 0001015 159.0544 201.0711 14.82897791545109
ASTRO-H (HITOMI)        
1 41337U 16012A   25360.97408141  .00004343  00000+0  25887-3 0  9994
2 41337  30.9993 105.5984 0009680 321.2405  38.7538 15.09446281541234
HXMT (HUIYAN)           
1 42758U 17034A   25360.88760247  .00006571  00000+0  33989-3 0  9992
2 42758  43.0144  61.1102 0031400 136.1643 224.1704 15.16402547471486
CZ-2C R/B               
1 43521U 18054D   25360.92739545  .00130770  00000+0  75452-3 0  9996
2 43521  35.1327  84.4735 0014268 284.6023  75.3129 15.77130839417299
SAOCOM 1A               
1 43641U 18076A   25360.98415591 -.00000421  00000+0 -46356-4 0  9994
2 43641  97.8846 185.1986 0001353  81.0633 279.0733 14.82144776390594
H-2A R/B                
1 43682U 18084L   25360.48866613  .00019308  00000+0  51472-3 0  9994
2 43682  98.8772 197.4229 0026478 278.1884  81.6354 15.37874390394511
SAOCOM 1B               
1 46265U 20059A   25360.94790067  .00001356  00000+0  17692-3 0  9999
2 46265  97.8843 184.2628 0001467  85.7054 274.4327 14.82155194287974
CSS (TIANHE)            
1 48274U 21035A   25360.93177270  .00018761  00000+0  23104-3 0  9993
2 48274  41.4675 290.5114 0008732 154.9410 205.1854 15.59735336266242
COSMOS 2550             
1 48865U 21056A   25360.55005821 -.00000144  00000+0  14442-5 0  9996
2 48865  67.1451 262.1617 0008182 269.8127  90.2090 15.33846232252248
CZ-2C R/B               
1 52794U 22058K   25360.35558589  .00028113  00000+0  49313-3 0  9995
2 52794  50.1918 334.0785 0044539 254.5414 105.0633 15.49174937198740
