CCSDS_OMM_VERS = 2.0
CREATION_DATE  = 
ORIGINATOR     = 

OBJECT_NAME    = SL-4 R/B
OBJECT_ID      = 2014-021B
CENTER_NAME    = EARTH
REF_FRAME      = TEME
TIME_SYSTEM    = UTC
MEAN_ELEMENT_THEORY = SGP/SGP4

EPOCH          = 2025-12-26T22:06:51.440544
MEAN_MOTION    = 15.37002304
ECCENTRICITY   = .01006442
INCLINATION    = 51.6091
RA_OF_ASC_NODE = 331.6564
ARG_OF_PERICENTER = 197.4438
MEAN_ANOMALY   = 162.3079

EPHEMERIS_TYPE = 0
CLASSIFICATION_TYPE = U
NORAD_CAT_ID   = 39679
ELEMENT_SET_NO = 999
REV_AT_EPOCH   = 64507
BSTAR          = .3234935E-3
MEAN_MOTION_DOT = .13697E-3
MEAN_MOTION_DDOT = 0

CCSDS_OMM_VERS = 2.0
CREATION_DATE  = 
ORIGINATOR     = 

OBJECT_NAME    = ALOS-2
OBJECT_ID      = 2014-029A
CENTER_NAME    = EARTH
REF_FRAME      = TEME
TIME_SYSTEM    = UTC
MEAN_ELEMENT_THEORY = SGP/SGP4

EPOCH          = 2025-12-26T21:04:46.534368
MEAN_MOTION    = 14.79473782
ECCENTRICITY   = .00013773
INCLINATION    = 97.9215
RA_OF_ASC_NODE = 95.5225
ARG_OF_PERICENTER = 99.1810
MEAN_ANOMALY   = 260.9558

EPHEMERIS_TYPE = 0
CLASSIFICATION_TYPE = U
NORAD_CAT_ID   = 39766
ELEMENT_SET_NO = 999
REV_AT_EPOCH   = 62610
BSTAR          = .17003388E-3
MEAN_MOTION_DOT = .1219E-4
MEAN_MOTION_DDOT = 0

CCSDS_OMM_VERS = 2.0
CREATION_DATE  = 
ORIGINATOR     = 

OBJECT_NAME    = YAOGAN-29
OBJECT_ID      = 2015-069A
CENTER_NAME    = EARTH
REF_FRAME      = TEME
TIME_SYSTEM    = UTC
MEAN_ELEMENT_THEORY = SGP/SGP4

EPOCH          = 2025-12-26T23:45:16.231680
MEAN_MOTION    = 14.82897791
ECCENTRICITY   = .00010154
INCLINATION    = 98.0209
RA_OF_ASC_NODE = 24.2061
ARG_OF_PERICENTER = 159.0544
MEAN_ANOMALY   = 201.0711

EPHEMERIS_TYPE = 0
CLASSIFICATION_TYPE = U
NORAD_CAT_ID   = 41038
ELEMENT_SET_NO = 999
REV_AT_EPOCH   = 54510
BSTAR          = .42178401E-4
MEAN_MOTION_DOT = .288E-5
MEAN_MOTION_DDOT = 0

CCSDS_OMM_VERS = 2.0
CREATION_DATE  = 
ORIGINATOR     = 

OBJECT_NAME    = ASTRO-H (HITOMI)
OBJECT_ID      = 2016-012A
CENTER_NAME    = EARTH
REF_FRAME      = TEME
TIME_SYSTEM    = UTC
MEAN_ELEMENT_THEORY = SGP/SGP4

EPOCH          = 2025-12-26T23:22:40.633824
MEAN_MOTION    = 15.09446281
ECCENTRICITY   = .00096808
INCLINATION    = 30.9993
RA_OF_ASC_NODE = 105.5984
ARG_OF_PERICENTER = 321.2405
MEAN_ANOMALY   = 38.7538

EPHEMERIS_TYPE = 0
CLASSIFICATION_TYPE = U
NORAD_CAT_ID   = 41337
ELEMENT_SET_NO = 999
REV_AT_EPOCH   = 54123
BSTAR          = .25886942E-3
MEAN_MOTION_DOT = .4343E-4
MEAN_MOTION_DDOT = 0

CCSDS_OMM_VERS = 2.0
CREATION_DATE  = 
ORIGINATOR     = 

OBJECT_NAME    = HXMT (HUIYAN)
OBJECT_ID      = 2017-034A
CENTER_NAME    = EARTH
REF_FRAME      = TEME
TIME_SYSTEM    = UTC
MEAN_ELEMENT_THEORY = SGP/SGP4

EPOCH          = 2025-12-26T21:18:08.853408
MEAN_MOTION    = 15.16402547
ECCENTRICITY   = .00314007
INCLINATION    = 43.0144
RA_OF_ASC_NODE = 61.1102
ARG_OF_PERICENTER = 136.1643
MEAN_ANOMALY   = 224.1704

EPHEMERIS_TYPE = 0
CLASSIFICATION_TYPE = U
NORAD_CAT_ID   = 42758
ELEMENT_SET_NO = 999
REV_AT_EPOCH   = 47148
BSTAR          = .33988683E-3
MEAN_MOTION_DOT = .6571E-4
MEAN_MOTION_DDOT = 0

CCSDS_OMM_VERS = 2.0
CREATION_DATE  = 
ORIGINATOR     = 

OBJECT_NAME    = CZ-2C R/B
OBJECT_ID      = 2018-054D
CENTER_NAME    = EARTH
REF_FRAME      = TEME
TIME_SYSTEM    = UTC
MEAN_ELEMENT_THEORY = SGP/SGP4

EPOCH          = 2025-12-26T22:15:26.966880
MEAN_MOTION    = 15.77130839
ECCENTRICITY   = .00142688
INCLINATION    = 35.1327
RA_OF_ASC_NODE = 84.4735
ARG_OF_PERICENTER = 284.6023
MEAN_ANOMALY   = 75.3129

EPHEMERIS_TYPE = 0
CLASSIFICATION_TYPE = U
NORAD_CAT_ID   = 43521
ELEMENT_SET_NO = 999
REV_AT_EPOCH   = 41729
BSTAR          = .75452268E-3
MEAN_MOTION_DOT = .13077E-2
MEAN_MOTION_DDOT = 0

CCSDS_OMM_VERS = 2.0
CREATION_DATE  = 
ORIGINATOR     = 

OBJECT_NAME    = SAOCOM 1A
OBJECT_ID      = 2018-076A
CENTER_NAME    = EARTH
REF_FRAME      = TEME
TIME_SYSTEM    = UTC
MEAN_ELEMENT_THEORY = SGP/SGP4

EPOCH          = 2025-12-26T23:37:11.070624
MEAN_MOTION    = 14.82144776
ECCENTRICITY   = .00013533
INCLINATION    = 97.8846
RA_OF_ASC_NODE = 185.1986
ARG_OF_PERICENTER = 81.0633
MEAN_ANOMALY   = 279.0733

EPHEMERIS_TYPE = 0
CLASSIFICATION_TYPE = U
NORAD_CAT_ID   = 43641
ELEMENT_SET_NO = 999
REV_AT_EPOCH   = 39059
BSTAR          = -.463563E-4
MEAN_MOTION_DOT = -.421E-5
MEAN_MOTION_DDOT = 0

CCSDS_OMM_VERS = 2.0
CREATION_DATE  = 
ORIGINATOR     = 

OBJECT_NAME    = H-2A R/B
OBJECT_ID      = 2018-084L
CENTER_NAME    = EARTH
REF_FRAME      = TEME
TIME_SYSTEM    = UTC
MEAN_ELEMENT_THEORY = SGP/SGP4

EPOCH          = 2025-12-26T11:43:40.753632
MEAN_MOTION    = 15.37874390
ECCENTRICITY   = .0026478
INCLINATION    = 98.8772
RA_OF_ASC_NODE = 197.4229
ARG_OF_PERICENTER = 278.1884
MEAN_ANOMALY   = 81.6354

EPHEMERIS_TYPE = 0
CLASSIFICATION_TYPE = U
NORAD_CAT_ID   = 43682
ELEMENT_SET_NO = 999
REV_AT_EPOCH   = 39451
BSTAR          = .51472E-3
MEAN_MOTION_DOT = .19308E-3
MEAN_MOTION_DDOT = 0

CCSDS_OMM_VERS = 2.0
CREATION_DATE  = 
ORIGINATOR     = 

OBJECT_NAME    = SAOCOM 1B
OBJECT_ID      = 2020-059A
CENTER_NAME    = EARTH
REF_FRAME      = TEME
TIME_SYSTEM    = UTC
MEAN_ELEMENT_THEORY = SGP/SGP4

EPOCH          = 2025-12-26T22:44:58.617888
MEAN_MOTION    = 14.82155194
ECCENTRICITY   = .00014677
INCLINATION    = 97.8843
RA_OF_ASC_NODE = 184.2628
ARG_OF_PERICENTER = 85.7054
MEAN_ANOMALY   = 274.4327

EPHEMERIS_TYPE = 0
CLASSIFICATION_TYPE = U
NORAD_CAT_ID   = 46265
ELEMENT_SET_NO = 999
REV_AT_EPOCH   = 28797
BSTAR          = .17691863E-3
MEAN_MOTION_DOT = .1356E-4
MEAN_MOTION_DDOT = 0

CCSDS_OMM_VERS = 2.0
CREATION_DATE  = 
ORIGINATOR     = 

OBJECT_NAME    = CSS (TIANHE)
OBJECT_ID      = 2021-035A
CENTER_NAME    = EARTH
REF_FRAME      = TEME
TIME_SYSTEM    = UTC
MEAN_ELEMENT_THEORY = SGP/SGP4

EPOCH          = 2025-12-26T22:21:45.161280
MEAN_MOTION    = 15.59735336
ECCENTRICITY   = .00087329
INCLINATION    = 41.4675
RA_OF_ASC_NODE = 290.5114
ARG_OF_PERICENTER = 154.9410
MEAN_ANOMALY   = 205.1854

EPHEMERIS_TYPE = 0
CLASSIFICATION_TYPE = U
NORAD_CAT_ID   = 48274
ELEMENT_SET_NO = 999
REV_AT_EPOCH   = 26624
BSTAR          = .23104085E-3
MEAN_MOTION_DOT = .18761E-3
MEAN_MOTION_DDOT = 0

CCSDS_OMM_VERS = 2.0
CREATION_DATE  = 
ORIGINATOR     = 

OBJECT_NAME    = COSMOS 2550
OBJECT_ID      = 2021-056A
CENTER_NAME    = EARTH
REF_FRAME      = TEME
TIME_SYSTEM    = UTC
MEAN_ELEMENT_THEORY = SGP/SGP4

EPOCH          = 2025-12-26T13:12:05.029344
MEAN_MOTION    = 15.33846232
ECCENTRICITY   = .0008182
INCLINATION    = 67.1451
RA_OF_ASC_NODE = 262.1617
ARG_OF_PERICENTER = 269.8127
MEAN_ANOMALY   = 90.2090

EPHEMERIS_TYPE = 0
CLASSIFICATION_TYPE = U
NORAD_CAT_ID   = 48865
ELEMENT_SET_NO = 999
REV_AT_EPOCH   = 25224
BSTAR          = .14442E-5
MEAN_MOTION_DOT = -.144E-5
MEAN_MOTION_DDOT = 0

CCSDS_OMM_VERS = 2.0
CREATION_DATE  = 
ORIGINATOR     = 

OBJECT_NAME    = CZ-2C R/B
OBJECT_ID      = 2022-058K
CENTER_NAME    = EARTH
REF_FRAME      = TEME
TIME_SYSTEM    = UTC
MEAN_ELEMENT_THEORY = SGP/SGP4

EPOCH          = 2025-12-26T08:32:02.620896
MEAN_MOTION    = 15.49174937
ECCENTRICITY   = .0044539
INCLINATION    = 50.1918
RA_OF_ASC_NODE = 334.0785
ARG_OF_PERICENTER = 254.5414
MEAN_ANOMALY   = 105.0633

EPHEMERIS_TYPE = 0
CLASSIFICATION_TYPE = U
NORAD_CAT_ID   = 52794
ELEMENT_SET_NO = 999
REV_AT_EPOCH   = 19874
BSTAR          = .49313E-3
MEAN_MOTION_DOT = .28113E-3
MEAN_MOTION_DDOT = 0

